#aV2019  8 29  0  0  0.00000000     288 DD+AD WGS84 FIT  NGA
## 2068 345600.00000000   300.00000000 58724 0.0000000000000
+   31     1  2  3  5  6  7  8  9 10 11 12 13 14 15 16 17 18
+         19 20 21 22 23 24 25 26 27 28 29 30 31 32  0  0  0
+          0  0  0  0  0  0  0  0  0  0  0  0  0  0  0  0  0
+          0  0  0  0  0  0  0  0  0  0  0  0  0  0  0  0  0
+          0  0  0  0  0  0  0  0  0  0  0  0  0  0  0  0  0
++         2  2  2  2  2  2  2  2  2  2  2  2  2  2  2  2  2
++         2  2  2  2  2  2  2  2  2  2  2  2  2  2  0  0  0
++         0  0  0  0  0  0  0  0  0  0  0  0  0  0  0  0  0
++         0  0  0  0  0  0  0  0  0  0  0  0  0  0  0  0  0
++         0  0  0  0  0  0  0  0  0  0  0  0  0  0  0  0  0
%c cc cc ccc ccc cccc cccc cccc cccc ccccc ccccc ccccc ccccc
%c cc cc ccc ccc cccc cccc cccc cccc ccccc ccccc ccccc ccccc
%f  0.0000000  0.000000000  0.00000000000  0.000000000000000
%f  0.0000000  0.000000000  0.00000000000  0.000000000000000
%i    0    0    0    0      0      0      0      0         0
%i    0    0    0    0      0      0      0      0         0
/*      NGA, ST. LOUIS,MO.                                  
/*   EPHEMERIS COMPUTED FROM 2 DAYS OF DATA                 
/*   EPOCHA v5 SMOOTHER                                     
/*   G1762 IERS2010 SATAF SATAPC                            
*  2019  8 29 15  5  0.00000000
P  1  21493.421355  12838.246902   9133.086786   -111.726310                    
V  1   6946.303863   9689.226658 -29010.881175     -0.119525                    
P  2 -12849.510688 -21095.162021  10554.902861   -293.535646                    
V  2  10962.167330   6411.205526  27648.029509     -0.082680                    
P  3  14560.338690   4088.897075  21782.525949     -5.770428                    
V  3  -7094.644235  26850.865955   -207.888107     -0.034998                    
P  5  -4598.336763 -22410.566167 -13453.902329     -0.980283                    
V  5   6376.312216 -15930.264066  24801.046396     -0.002940                    
P  6   1364.856019 -17572.786217  19898.813188    -40.279420                    
V  6  18596.900251  16957.874696  13754.497336     -0.121259                    
P  7  18168.694941   -932.723944 -19234.133670    -95.258306                    
V  7  16577.694101  18602.149367  14074.012813     -0.078918                    
P  8  18997.593620   6870.518670 -17316.399632     -4.530625                    
V  8 -20697.090831   7445.493540 -19513.685465     -0.014025                    
P  9  25363.155524  -7863.748942   -754.882045    -18.159378                    
V  9   1722.329304   2698.137884  31551.886591     -0.091965                    
P 10 -11387.871979  22601.605508  -7632.096758    -32.758386                    
V 10   -156.216089 -10199.073159 -29932.679234     -0.147004                    
P 11  24854.219598   8906.120454   -464.403692   -521.959506                    
V 11  -1504.912435   4408.381269 -30768.894411      0.104565                    
P 12 -12292.070811  -8782.450687  21647.971545    209.300763                    
V 12   9241.073703 -26347.367542  -5232.935887     -0.037524                    
P 13  -9062.638407 -13425.511598 -21172.234182    -47.180334                    
V 13  26232.629479  -4391.558799  -8427.863541      0.019788                    
P 14  -6403.435039  15866.288278  20597.020784    -64.100813                    
V 14 -25212.532934   3742.736312 -11075.423244      0.019457                    
P 15 -20275.104657  -5667.707277 -16697.000066   -290.757136                    
V 15  18545.772587  -9279.223975 -19307.439392      0.026793                    
P 16   1171.825074  22872.950718 -13253.398608    -69.303386                    
V 16  -7479.048217  15004.091664  26016.478167     -0.034011                    
P 17  15165.936278 -14540.343571  16607.308908    115.671065                    
V 17  20122.115092  -2974.906809 -21599.413504      0.071051                    
P 18  19900.106489  17666.919142    164.778080     81.657258                    
V 18  -1345.794381   2718.113160 -31555.741888      0.029388                    
P 19   9528.035231 -14835.744700  19573.686308   -274.424734                    
V 19  25266.843892  -3185.845879 -14456.912927      0.050922                    
P 20 -14118.520117  15833.823967 -15980.032117    526.662739                    
V 20    177.659343 -20418.481666 -20693.696309      0.001457                    
P 21 -14578.096231   6616.329065 -20375.332011   -127.972641                    
V 21 -20198.170080 -19093.897091   8125.829417      0.065728                    
P 22  12988.695974  12094.166395  20008.524945   -749.262331                    
V 22  -5794.407207  24371.743528 -10999.981211     -0.041278                    
P 23  24489.541012   1129.946595  11041.610783   -169.699363                    
V 23 -12153.019027   6198.893128  26780.412937      0.019870                    
P 24 -22122.540489 -13598.871275   6216.737931     -1.432067                    
V 24  -3918.915022  -7702.325175 -29679.719812     -0.004422                    
P 25 -15923.416954   6848.188518  19838.473715     -9.827979                    
V 25   5457.708315 -25152.762122  13170.093363     -0.018194                    
P 26  -3922.022288  26000.147535  -2978.776765     26.562378                    
V 26  -4055.569112   2937.815332  31340.447943      0.089173                    
P 27   6148.305638  13686.396704 -22045.297651    -38.856460                    
V 27 -26644.935047   7374.164071  -2575.883339     -0.118127                    
P 28  12730.509352 -22265.421076  -6491.428331    763.612999                    
V 28  -1104.059477   9180.625223 -30703.569551     -0.009012                    
P 29 -26191.596508   4094.805902   1800.838872    112.090990                    
V 29   1879.043368  -2418.931723  32177.696601     -0.100786                    
P 30  10361.077461 -11799.481934 -21380.480450    -29.640111                    
V 30  18814.298058  19805.476827  -2006.000912     -0.078750                    
P 31   -466.824577  18607.150983  18766.293348     14.021067                    
V 31 -17778.425636 -16221.232117  16075.313156     -0.026223                    
P 32 -14787.958081  15570.091803  15612.866497     37.421941                    
V 32 -19607.005465   3307.312696 -22078.618485      0.141015                    
EOF
